{
    "type": "FeatureCollection",
    "features": [
      {
        "type": "Feature",
        "properties": {},
        "geometry": {
          "coordinates": [
            [
              [
                -52.15584002276735,
                70.73452416296715
              ],
              [
                -52.197584722008784,
                70.71299863221762
              ],
              [
                -52.16023298857668,
                70.6780148599496
              ],
              [
                -52.14270681893478,
                70.67283188257167
              ],
              [
                -52.12441801369303,
                70.67122136870077
              ],
              [
                -52.11137739660515,
                70.6741866645769
              ],
              [
                -52.09496097201641,
                70.692317784175
              ],
              [
                -52.105431517606405,
                70.71942185152434
              ],
              [
                -52.114056944906096,
                70.72556644785953
              ],
              [
                -52.13762861490848,
                70.73266916868505
              ],
              [
                -52.15584002276735,
                70.73452416296715
              ]
            ]
          ],
          "type": "Polygon"
        }
      }
    ]
  }