{
    "type": "FeatureCollection",
    "features": [
      {
        "type": "Feature",
        "properties": {},
        "geometry": {
          "coordinates": [
            [
              [
                -52.34915408749325,
                70.64081665526308
              ],
              [
                -51.93360986810109,
                70.64081665526308
              ],
              [
                -51.93360986810109,
                70.765296122774
              ],
              [
                -52.34915408749325,
                70.765296122774
              ],
              [
                -52.34915408749325,
                70.64081665526308
              ]
            ]
          ],
          "type": "Polygon"
        }
      }
    ]
  }